STARLINK-3051
1 29157C 21082AD  21325.18812228  .00008078  00000-0  67663-4 0  3252
2 29157  69.9989 295.5208 0003514 287.4117 144.2598 15.69742938    10
